LEMUR-2-SIERRINI        
1 60579U 24149DR  26068.80891719  .00014386  00000+0  92040-3 0  9991
2 60579  97.6873 151.1225 0006580 147.8458 212.3173 15.08682764 85461
LEMUR-2-UNTITLED-SC     
1 63351U 25061A   26068.89211098  .00005783  00000+0  33296-3 0  9990
2 63351  97.5556  45.0864 0017373 245.6030 114.3388 15.12695529 52577
